KINEIS-1B               
1 60079U 24114A   26190.82622564  .00000486  00000+0  70120-4 0  9998
2 60079  97.9827 214.9036 0003328  50.1449 310.0055 14.80661893110754
KINEIS-1C               
1 60081U 24114C   26190.85986448  .00000477  00000+0  68891-4 0  9990
2 60081  97.9840 214.7912 0002527 101.5354 258.6142 14.80663891110731
KINEIS-1D               
1 60082U 24114D   26190.81676300  .00000404  00000+0  65542-4 0  9990
2 60082  97.9877 210.7050 0002874 106.4071 253.7455 14.76358288110465
KINEIS-1E               
1 60083U 24114E   26190.81019117  .00000627  00000+0  88324-4 0  9998
2 60083  97.8943 213.8707 0003947 120.7244 239.4357 14.80688404110738
KINEIS-1A               
1 60084U 24114F   26190.84359205  .00000500  00000+0  71820-4 0  9990
2 60084  97.8916 213.9991 0005594  75.1678 285.0154 14.80677031110746
KINEIS-3C               
1 61220U 24172A   26189.82018517  .00001184  00000+0  19490-3 0  9994
2 61220  98.0431 279.4900 0002749  92.2536 267.8986 14.72355818 96250
KINEIS-3D               
1 61221U 24172B   26189.81344248  .00001106  00000+0  18256-3 0  9990
2 61221  98.0427 279.4937 0002612  92.0165 268.1342 14.72360142 96538
KINEIS-3E               
1 61222U 24172C   26190.20422537  .00001323  00000+0  21709-3 0  9992
2 61222  98.0428 279.8619 0001854  92.2979 267.8441 14.72327504 96590
KINEIS-3A               
1 61223U 24172D   26190.66341416  .00001218  00000+0  20067-3 0  9998
2 61223  98.0425 280.4146 0002544  53.2147 306.9294 14.72298399 96086
KINEIS-3B               
1 61224U 24172E   26190.23821324  .00001279  00000+0  21027-3 0  9997
2 61224  98.0418 280.0168 0002069  41.4606 318.6758 14.72283620 96592
KINEIS-5C               
1 62081U 24219A   26190.82714551  .00000402  00000+0  71284-4 0  9997
2 62081  97.9061 349.0529 0003717 189.7987 170.3148 14.72310325 87085
KINEIS-5D               
1 62082U 24219B   26190.85430774  .00000601  00000+0  10236-3 0  9993
2 62082  97.9174 349.1384 0004841 183.6497 176.4676 14.72487583 87094
KINEIS-5E               
1 62083U 24219C   26190.80346869  .00000399  00000+0  70817-4 0  9996
2 62083  97.9018 349.1272 0006329 180.9528 179.1668 14.72295214 87095
KINEIS-5A               
1 62084U 24219D   26190.91741618  .00000799  00000+0  13424-3 0  9994
2 62084  97.8958 349.5219 0003340 219.8075 140.2888 14.72228657 87115
KINEIS-5B               
1 62085U 24219E   26190.85705551  .00000713  00000+0  10507-3 0  9999
2 62085  98.0084 354.5623 0002123 156.2818 203.8491 14.78378540 87356
KINEIS-2C               
1 62929U 25028B   26190.12041528  .00001045  00000+0  16911-3 0  9996
2 62929  98.1232 244.5375 0003756 176.0663 184.0575 14.73417571 75849
