{"fetched_at":"2026-07-10T07:59:08.356Z","source":"https://celestrak.org/NORAD/elements/gp.php?NAME=KINEIS&FORMAT=JSON","constellation":"kineis","records":[{"OBJECT_NAME":"KINEIS-1B","OBJECT_ID":"2024-114A","EPOCH":"2026-07-09T19:49:45.895296","CLASSIFICATION_TYPE":"U","MEAN_MOTION":14.80661893,"ECCENTRICITY":0.0003328,"INCLINATION":97.9827,"RA_OF_ASC_NODE":214.9036,"ARG_OF_PERICENTER":50.1449,"MEAN_ANOMALY":310.0055,"EPHEMERIS_TYPE":0,"NORAD_CAT_ID":60079,"ELEMENT_SET_NO":999,"REV_AT_EPOCH":11075,"BSTAR":0.00007012,"MEAN_MOTION_DOT":0.00000486,"MEAN_MOTION_DDOT":0},{"OBJECT_NAME":"KINEIS-1C","OBJECT_ID":"2024-114C","EPOCH":"2026-07-09T20:38:12.291072","CLASSIFICATION_TYPE":"U","MEAN_MOTION":14.80663891,"ECCENTRICITY":0.0002527,"INCLINATION":97.984,"RA_OF_ASC_NODE":214.7912,"ARG_OF_PERICENTER":101.5354,"MEAN_ANOMALY":258.6142,"EPHEMERIS_TYPE":0,"NORAD_CAT_ID":60081,"ELEMENT_SET_NO":999,"REV_AT_EPOCH":11073,"BSTAR":0.000068891,"MEAN_MOTION_DOT":0.00000477,"MEAN_MOTION_DDOT":0},{"OBJECT_NAME":"KINEIS-1D","OBJECT_ID":"2024-114D","EPOCH":"2026-07-09T19:36:08.323200","CLASSIFICATION_TYPE":"U","MEAN_MOTION":14.76358288,"ECCENTRICITY":0.0002874,"INCLINATION":97.9877,"RA_OF_ASC_NODE":210.705,"ARG_OF_PERICENTER":106.4071,"MEAN_ANOMALY":253.7455,"EPHEMERIS_TYPE":0,"NORAD_CAT_ID":60082,"ELEMENT_SET_NO":999,"REV_AT_EPOCH":11046,"BSTAR":0.000065542,"MEAN_MOTION_DOT":0.00000404,"MEAN_MOTION_DDOT":0},{"OBJECT_NAME":"KINEIS-1E","OBJECT_ID":"2024-114E","EPOCH":"2026-07-09T19:26:40.517088","CLASSIFICATION_TYPE":"U","MEAN_MOTION":14.80688404,"ECCENTRICITY":0.0003947,"INCLINATION":97.8943,"RA_OF_ASC_NODE":213.8707,"ARG_OF_PERICENTER":120.7244,"MEAN_ANOMALY":239.4357,"EPHEMERIS_TYPE":0,"NORAD_CAT_ID":60083,"ELEMENT_SET_NO":999,"REV_AT_EPOCH":11073,"BSTAR":0.000088324,"MEAN_MOTION_DOT":0.00000627,"MEAN_MOTION_DDOT":0},{"OBJECT_NAME":"KINEIS-1A","OBJECT_ID":"2024-114F","EPOCH":"2026-07-09T20:14:46.353120","CLASSIFICATION_TYPE":"U","MEAN_MOTION":14.80677031,"ECCENTRICITY":0.0005594,"INCLINATION":97.8916,"RA_OF_ASC_NODE":213.9991,"ARG_OF_PERICENTER":75.1678,"MEAN_ANOMALY":285.0154,"EPHEMERIS_TYPE":0,"NORAD_CAT_ID":60084,"ELEMENT_SET_NO":999,"REV_AT_EPOCH":11074,"BSTAR":0.00007182,"MEAN_MOTION_DOT":0.000005,"MEAN_MOTION_DDOT":0},{"OBJECT_NAME":"KINEIS-3C","OBJECT_ID":"2024-172A","EPOCH":"2026-07-08T19:41:03.998688","CLASSIFICATION_TYPE":"U","MEAN_MOTION":14.72355818,"ECCENTRICITY":0.00027496,"INCLINATION":98.0431,"RA_OF_ASC_NODE":279.49,"ARG_OF_PERICENTER":92.2536,"MEAN_ANOMALY":267.8986,"EPHEMERIS_TYPE":0,"NORAD_CAT_ID":61220,"ELEMENT_SET_NO":999,"REV_AT_EPOCH":9625,"BSTAR":0.00019489517,"MEAN_MOTION_DOT":0.00001184,"MEAN_MOTION_DDOT":0},{"OBJECT_NAME":"KINEIS-3D","OBJECT_ID":"2024-172B","EPOCH":"2026-07-08T19:31:21.430272","CLASSIFICATION_TYPE":"U","MEAN_MOTION":14.72360142,"ECCENTRICITY":0.00026129,"INCLINATION":98.0427,"RA_OF_ASC_NODE":279.4937,"ARG_OF_PERICENTER":92.0165,"MEAN_ANOMALY":268.1342,"EPHEMERIS_TYPE":0,"NORAD_CAT_ID":61221,"ELEMENT_SET_NO":999,"REV_AT_EPOCH":9653,"BSTAR":0.0001825622,"MEAN_MOTION_DOT":0.00001106,"MEAN_MOTION_DDOT":0},{"OBJECT_NAME":"KINEIS-3E","OBJECT_ID":"2024-172C","EPOCH":"2026-07-09T04:54:05.071968","CLASSIFICATION_TYPE":"U","MEAN_MOTION":14.72327504,"ECCENTRICITY":0.00018546,"INCLINATION":98.0428,"RA_OF_ASC_NODE":279.8619,"ARG_OF_PERICENTER":92.2979,"MEAN_ANOMALY":267.8441,"EPHEMERIS_TYPE":0,"NORAD_CAT_ID":61222,"ELEMENT_SET_NO":999,"REV_AT_EPOCH":9659,"BSTAR":0.00021708584,"MEAN_MOTION_DOT":0.00001323,"MEAN_MOTION_DDOT":0},{"OBJECT_NAME":"KINEIS-3A","OBJECT_ID":"2024-172D","EPOCH":"2026-07-09T15:55:18.983424","CLASSIFICATION_TYPE":"U","MEAN_MOTION":14.72298399,"ECCENTRICITY":0.0002544,"INCLINATION":98.0425,"RA_OF_ASC_NODE":280.4146,"ARG_OF_PERICENTER":53.2147,"MEAN_ANOMALY":306.9294,"EPHEMERIS_TYPE":0,"NORAD_CAT_ID":61223,"ELEMENT_SET_NO":999,"REV_AT_EPOCH":9608,"BSTAR":0.00020067,"MEAN_MOTION_DOT":0.00001218,"MEAN_MOTION_DDOT":0},{"OBJECT_NAME":"KINEIS-3B","OBJECT_ID":"2024-172E","EPOCH":"2026-07-09T05:43:01.623936","CLASSIFICATION_TYPE":"U","MEAN_MOTION":14.7228362,"ECCENTRICITY":0.00020697,"INCLINATION":98.0418,"RA_OF_ASC_NODE":280.0168,"ARG_OF_PERICENTER":41.4606,"MEAN_ANOMALY":318.6758,"EPHEMERIS_TYPE":0,"NORAD_CAT_ID":61224,"ELEMENT_SET_NO":999,"REV_AT_EPOCH":9659,"BSTAR":0.00021026764,"MEAN_MOTION_DOT":0.00001279,"MEAN_MOTION_DDOT":0},{"OBJECT_NAME":"KINEIS-5C","OBJECT_ID":"2024-219A","EPOCH":"2026-07-09T19:51:05.372064","CLASSIFICATION_TYPE":"U","MEAN_MOTION":14.72310325,"ECCENTRICITY":0.0003717,"INCLINATION":97.9061,"RA_OF_ASC_NODE":349.0529,"ARG_OF_PERICENTER":189.7987,"MEAN_ANOMALY":170.3148,"EPHEMERIS_TYPE":0,"NORAD_CAT_ID":62081,"ELEMENT_SET_NO":999,"REV_AT_EPOCH":8708,"BSTAR":0.000071284,"MEAN_MOTION_DOT":0.00000402,"MEAN_MOTION_DDOT":0},{"OBJECT_NAME":"KINEIS-5D","OBJECT_ID":"2024-219B","EPOCH":"2026-07-09T20:30:12.188736","CLASSIFICATION_TYPE":"U","MEAN_MOTION":14.72487583,"ECCENTRICITY":0.0004841,"INCLINATION":97.9174,"RA_OF_ASC_NODE":349.1384,"ARG_OF_PERICENTER":183.6497,"MEAN_ANOMALY":176.4676,"EPHEMERIS_TYPE":0,"NORAD_CAT_ID":62082,"ELEMENT_SET_NO":999,"REV_AT_EPOCH":8709,"BSTAR":0.00010236,"MEAN_MOTION_DOT":0.00000601,"MEAN_MOTION_DDOT":0},{"OBJECT_NAME":"KINEIS-5E","OBJECT_ID":"2024-219C","EPOCH":"2026-07-09T19:16:59.694816","CLASSIFICATION_TYPE":"U","MEAN_MOTION":14.72295214,"ECCENTRICITY":0.0006329,"INCLINATION":97.9018,"RA_OF_ASC_NODE":349.1272,"ARG_OF_PERICENTER":180.9528,"MEAN_ANOMALY":179.1668,"EPHEMERIS_TYPE":0,"NORAD_CAT_ID":62083,"ELEMENT_SET_NO":999,"REV_AT_EPOCH":8709,"BSTAR":0.000070817,"MEAN_MOTION_DOT":0.00000399,"MEAN_MOTION_DDOT":0},{"OBJECT_NAME":"KINEIS-5A","OBJECT_ID":"2024-219D","EPOCH":"2026-07-09T22:01:04.757952","CLASSIFICATION_TYPE":"U","MEAN_MOTION":14.72228657,"ECCENTRICITY":0.000334,"INCLINATION":97.8958,"RA_OF_ASC_NODE":349.5219,"ARG_OF_PERICENTER":219.8075,"MEAN_ANOMALY":140.2888,"EPHEMERIS_TYPE":0,"NORAD_CAT_ID":62084,"ELEMENT_SET_NO":999,"REV_AT_EPOCH":8711,"BSTAR":0.00013424,"MEAN_MOTION_DOT":0.00000799,"MEAN_MOTION_DDOT":0},{"OBJECT_NAME":"KINEIS-5B","OBJECT_ID":"2024-219E","EPOCH":"2026-07-09T20:34:09.596064","CLASSIFICATION_TYPE":"U","MEAN_MOTION":14.7837854,"ECCENTRICITY":0.0002123,"INCLINATION":98.0084,"RA_OF_ASC_NODE":354.5623,"ARG_OF_PERICENTER":156.2818,"MEAN_ANOMALY":203.8491,"EPHEMERIS_TYPE":0,"NORAD_CAT_ID":62085,"ELEMENT_SET_NO":999,"REV_AT_EPOCH":8735,"BSTAR":0.00010507,"MEAN_MOTION_DOT":0.00000713,"MEAN_MOTION_DDOT":0},{"OBJECT_NAME":"KINEIS-2C","OBJECT_ID":"2025-028B","EPOCH":"2026-07-09T02:53:23.880192","CLASSIFICATION_TYPE":"U","MEAN_MOTION":14.73417571,"ECCENTRICITY":0.00037563,"INCLINATION":98.1232,"RA_OF_ASC_NODE":244.5375,"ARG_OF_PERICENTER":176.0663,"MEAN_ANOMALY":184.0575,"EPHEMERIS_TYPE":0,"NORAD_CAT_ID":62929,"ELEMENT_SET_NO":999,"REV_AT_EPOCH":7584,"BSTAR":0.00016910546,"MEAN_MOTION_DOT":0.00001045,"MEAN_MOTION_DDOT":0}]}
